COSMOS 2425 (716)       
1 29670U 06062A   18016.54155877 -.00000019  00000-0  10000-3 0  9991
2 29670  65.3563 297.6623 0022572 343.5843  29.8594  2.13104838 86086
COSMOS 2426 (717)       
1 29671U 06062B   18015.59336596 -.00000028  00000-0  10000-3 0  9995
2 29671  65.3726 297.7895 0016286 167.8489  54.9940  2.13102998 86065
COSMOS 2433 (720)       
1 32275U 07052A   18015.55691865 -.00000017  00000-0  10000-3 0  9996
2 32275  65.6142  58.4873 0004483 261.3202 268.5086  2.13104725 79573
COSMOS 2432 (719)       
1 32276U 07052B   18016.06205787 -.00000015  00000-0  10000-3 0  9996
2 32276  65.6262  58.5459 0011805 325.7385 183.9343  2.13103852 79588
COSMOS 2434 (721)       
1 32393U 07065A   18016.42971160 -.00000019  00000-0  00000+0 0  9994
2 32393  64.9711 296.7130 0002679  97.6611 270.3188  2.13102821 78309
COSMOS 2436 (723)       
1 32395U 07065C   18015.55737755 -.00000027  00000-0  10000-3 0  9993
2 32395  64.9805 296.7912 0016143 356.2546 112.2439  2.13104186 78214
COSMOS 2456 (730)       
1 36111U 09070A   18015.79223252  .00000046  00000-0  00000+0 0  9994
2 36111  64.1834 176.3095 0003198 349.9612  60.8088  2.13102858 62958
COSMOS 2457 (733)       
1 36112U 09070B   18015.72633563  .00000046  00000-0  00000-0 0  9999
2 36112  64.1641 176.2254 0007024 148.0828 339.7414  2.13101593 62956
COSMOS 2458 (734)       
1 36113U 09070C   18015.59429369  .00000046  00000-0  10000-3 0  9996
2 36113  64.1705 176.2399 0003140  58.5209  16.1787  2.13102001 62955
COSMOS 2459 (731)       
1 36400U 10007A   18016.13964193 -.00000015  00000-0  10000-3 0  9994
2 36400  65.5239  57.5476 0026928 347.9920 129.0854  2.13102083 61310
COSMOS 2461 (735)       
1 36401U 10007B   18015.38093944 -.00000018  00000-0  10000-3 0  9991
2 36401  65.5160  57.5498 0004864  62.6166 103.0095  2.13102023 61296
COSMOS 2460 (732)       
1 36402U 10007C   18015.66867027 -.00000017  00000-0  10000-3 0  9993
2 36402  65.5069  57.5096 0001677 264.5317 162.7602  2.13101630 61300
COSMOS 2464 (736)       
1 37139U 10041C   18015.76893579 -.00000025  00000-0  00000+0 0  9995
2 37139  64.5749 296.6177 0024302   8.9806  79.8364  2.13102647 57375
COSMOS 2471 (701K)      
1 37372U 11009A   18015.82748720 -.00000016  00000-0  00000-0 0  9994
2 37372  65.5037  57.4500 0009481 236.5520  93.2784  2.13107631 53573
COSMOS 2474 (742)       
1 37829U 11055A   18015.65679875  .00000048  00000-0  00000-0 0  9991
2 37829  64.5072 176.9674 0006223 239.5960 286.0988  2.13101862 48942
COSMOS 2476 (744)       
1 37867U 11064A   18015.69059277  .00000048  00000-0  00000+0 0  9994
2 37867  64.4867 177.0321 0015820 238.2128 359.4008  2.13101936 48299
COSMOS 2477 (745)       
1 37868U 11064B   18016.38443983  .00000047  00000-0  00000+0 0  9992
2 37868  64.4958 177.0553 0013676 239.4249 349.5010  2.13101799 48269
COSMOS 2475 (743)       
1 37869U 11064C   18015.68075620  .00000048  00000-0  00000-0 0  9996
2 37869  64.5028 177.0724 0017839 269.2924  96.3973  2.13101957 48266
COSMOS 2485 (747)       
1 39155U 13019A   18015.74159728  .00000048  00000-0  00000-0 0  9997
2 39155  64.6564 177.1066 0016381 232.6456  89.0556  2.13101930 36766
COSMOS 2492 (754)       
1 39620U 14012A   18015.68916172 -.00000017  00000-0  10000-3 0  9996
2 39620  65.3964  57.4149 0015269 323.4618 352.5441  2.13103397 29717
COSMOS 2500 (755)       
1 40001U 14032A   18015.65849060 -.00000018  00000-0  00000-0 0  9998
2 40001  65.3372  57.3991 0007257 218.5118 296.5453  2.13102664 27934
COSMOS 2501 (702K)      
1 40315U 14075A   18015.47655191 -.00000030  00000-0  00000-0 0  9997
2 40315  64.3012 297.8943 0015081 212.2009 326.6881  2.13098386 24330
COSMOS 2514 (751)       
1 41330U 16008A   18016.10117282 -.00000017  00000-0  00000+0 0  9992
2 41330  65.1400  57.4741 0010725 223.3603  91.8496  2.13103276 15100
COSMOS 2516 (753)       
1 41554U 16032A   18015.71103440 -.00000027  00000-0  00000-0 0  9996
2 41554  64.5208 297.7093 0011909 227.4602  40.0744  2.13101620 12701
COSMOS 2522 (752)       
1 42939U 17055A   18016.52078449 -.00000020  00000-0  00000+0 0  9992
2 42939  64.7508 297.6026 0008079 258.7748 136.3612  2.13101930  2482
